CCSDS_OMM_VERS = 2.0
CREATION_DATE  = 
ORIGINATOR     = 

OBJECT_NAME    = STARLINK-37083
OBJECT_ID      = 2026-053W
CENTER_NAME    = EARTH
REF_FRAME      = TEME
TIME_SYSTEM    = UTC
MEAN_ELEMENT_THEORY = SGP/SGP4

EPOCH          = 2026-04-03T11:16:53.020704
MEAN_MOTION    = 15.80824222
ECCENTRICITY   = .0001449
INCLINATION    = 97.2844
RA_OF_ASC_NODE = 329.0133
ARG_OF_PERICENTER = 76.4826
MEAN_ANOMALY   = 283.6604

EPHEMERIS_TYPE = 0
CLASSIFICATION_TYPE = U
NORAD_CAT_ID   = 68227
ELEMENT_SET_NO = 999
REV_AT_EPOCH   = 394
BSTAR          = .12155E-2
MEAN_MOTION_DOT = .23928E-2
MEAN_MOTION_DDOT = 0

CCSDS_OMM_VERS = 2.0
CREATION_DATE  = 
ORIGINATOR     = 

OBJECT_NAME    = STARLINK-37050
OBJECT_ID      = 2026-053X
CENTER_NAME    = EARTH
REF_FRAME      = TEME
TIME_SYSTEM    = UTC
MEAN_ELEMENT_THEORY = SGP/SGP4

EPOCH          = 2026-04-03T11:14:42.597312
MEAN_MOTION    = 15.80753340
ECCENTRICITY   = .0001086
INCLINATION    = 97.2847
RA_OF_ASC_NODE = 329.0154
ARG_OF_PERICENTER = 87.8540
MEAN_ANOMALY   = 272.2853

EPHEMERIS_TYPE = 0
CLASSIFICATION_TYPE = U
NORAD_CAT_ID   = 68228
ELEMENT_SET_NO = 999
REV_AT_EPOCH   = 395
BSTAR          = .36483E-3
MEAN_MOTION_DOT = .70102E-3
MEAN_MOTION_DDOT = 0

CCSDS_OMM_VERS = 2.0
CREATION_DATE  = 
ORIGINATOR     = 

OBJECT_NAME    = STARLINK-37081
OBJECT_ID      = 2026-053Y
CENTER_NAME    = EARTH
REF_FRAME      = TEME
TIME_SYSTEM    = UTC
MEAN_ELEMENT_THEORY = SGP/SGP4

EPOCH          = 2026-04-03T11:36:09.882144
MEAN_MOTION    = 15.75177076
ECCENTRICITY   = .0001482
INCLINATION    = 97.2834
RA_OF_ASC_NODE = 328.9958
ARG_OF_PERICENTER = 122.9493
MEAN_ANOMALY   = 237.1915

EPHEMERIS_TYPE = 0
CLASSIFICATION_TYPE = U
NORAD_CAT_ID   = 68229
ELEMENT_SET_NO = 999
REV_AT_EPOCH   = 397
BSTAR          = .13872E-2
MEAN_MOTION_DOT = .211881E-2
MEAN_MOTION_DDOT = 0

CCSDS_OMM_VERS = 2.0
CREATION_DATE  = 
ORIGINATOR     = 

OBJECT_NAME    = STARLINK-37100
OBJECT_ID      = 2026-053Z
CENTER_NAME    = EARTH
REF_FRAME      = TEME
TIME_SYSTEM    = UTC
MEAN_ELEMENT_THEORY = SGP/SGP4

EPOCH          = 2026-04-03T11:13:38.148960
MEAN_MOTION    = 15.80810988
ECCENTRICITY   = .0001652
INCLINATION    = 97.2847
RA_OF_ASC_NODE = 329.0165
ARG_OF_PERICENTER = 94.5131
MEAN_ANOMALY   = 265.6326

EPHEMERIS_TYPE = 0
CLASSIFICATION_TYPE = U
NORAD_CAT_ID   = 68230
ELEMENT_SET_NO = 999
REV_AT_EPOCH   = 397
BSTAR          = .10489E-2
MEAN_MOTION_DOT = .20554E-2
MEAN_MOTION_DDOT = 0

CCSDS_OMM_VERS = 2.0
CREATION_DATE  = 
ORIGINATOR     = 

OBJECT_NAME    = STARLINK-37104
OBJECT_ID      = 2026-053AA
CENTER_NAME    = EARTH
REF_FRAME      = TEME
TIME_SYSTEM    = UTC
MEAN_ELEMENT_THEORY = SGP/SGP4

EPOCH          = 2026-04-03T11:12:32.838336
MEAN_MOTION    = 15.80805394
ECCENTRICITY   = .0001223
INCLINATION    = 97.2845
RA_OF_ASC_NODE = 329.0171
ARG_OF_PERICENTER = 117.8268
MEAN_ANOMALY   = 242.3124

EPHEMERIS_TYPE = 0
CLASSIFICATION_TYPE = U
NORAD_CAT_ID   = 68231
ELEMENT_SET_NO = 999
REV_AT_EPOCH   = 397
BSTAR          = .9547E-3
MEAN_MOTION_DOT = .186602E-2
MEAN_MOTION_DDOT = 0

CCSDS_OMM_VERS = 2.0
CREATION_DATE  = 
ORIGINATOR     = 

OBJECT_NAME    = STARLINK-37027
OBJECT_ID      = 2026-054A
CENTER_NAME    = EARTH
REF_FRAME      = TEME
TIME_SYSTEM    = UTC
MEAN_ELEMENT_THEORY = SGP/SGP4

EPOCH          = 2026-04-03T11:48:42.241248
MEAN_MOTION    = 15.75215059
ECCENTRICITY   = .0000977
INCLINATION    = 53.1601
RA_OF_ASC_NODE = 188.5855
ARG_OF_PERICENTER = 110.6450
MEAN_ANOMALY   = 249.4675

EPHEMERIS_TYPE = 0
CLASSIFICATION_TYPE = U
NORAD_CAT_ID   = 68232
ELEMENT_SET_NO = 999
REV_AT_EPOCH   = 269
BSTAR          = .11301E-2
MEAN_MOTION_DOT = .176054E-2
MEAN_MOTION_DDOT = 0

CCSDS_OMM_VERS = 2.0
CREATION_DATE  = 
ORIGINATOR     = 

OBJECT_NAME    = STARLINK-37132
OBJECT_ID      = 2026-054B
CENTER_NAME    = EARTH
REF_FRAME      = TEME
TIME_SYSTEM    = UTC
MEAN_ELEMENT_THEORY = SGP/SGP4

EPOCH          = 2026-04-03T12:52:46.763904
MEAN_MOTION    = 15.80887999
ECCENTRICITY   = .0000835
INCLINATION    = 53.1590
RA_OF_ASC_NODE = 188.1436
ARG_OF_PERICENTER = 127.5986
MEAN_ANOMALY   = 232.5113

EPHEMERIS_TYPE = 0
CLASSIFICATION_TYPE = U
NORAD_CAT_ID   = 68233
ELEMENT_SET_NO = 999
REV_AT_EPOCH   = 270
BSTAR          = .15235E-2
MEAN_MOTION_DOT = .311313E-2
MEAN_MOTION_DDOT = 0

CCSDS_OMM_VERS = 2.0
CREATION_DATE  = 
ORIGINATOR     = 

OBJECT_NAME    = STARLINK-37101
OBJECT_ID      = 2026-054C
CENTER_NAME    = EARTH
REF_FRAME      = TEME
TIME_SYSTEM    = UTC
MEAN_ELEMENT_THEORY = SGP/SGP4

EPOCH          = 2026-04-03T12:00:01.999296
MEAN_MOTION    = 15.75120616
ECCENTRICITY   = .0001421
INCLINATION    = 53.1592
RA_OF_ASC_NODE = 188.4451
ARG_OF_PERICENTER = 83.4500
MEAN_ANOMALY   = 10.9520

EPHEMERIS_TYPE = 0
CLASSIFICATION_TYPE = U
NORAD_CAT_ID   = 68234
ELEMENT_SET_NO = 999
REV_AT_EPOCH   = 390
BSTAR          = .1214E-2
MEAN_MOTION_DOT = .188683E-2
MEAN_MOTION_DDOT = 0

CCSDS_OMM_VERS = 2.0
CREATION_DATE  = 
ORIGINATOR     = 

OBJECT_NAME    = STARLINK-36963
OBJECT_ID      = 2026-054D
CENTER_NAME    = EARTH
REF_FRAME      = TEME
TIME_SYSTEM    = UTC
MEAN_ELEMENT_THEORY = SGP/SGP4

EPOCH          = 2026-04-03T13:14:00.313728
MEAN_MOTION    = 15.75235814
ECCENTRICITY   = .0001347
INCLINATION    = 53.1597
RA_OF_ASC_NODE = 188.2417
ARG_OF_PERICENTER = 133.5736
MEAN_ANOMALY   = 226.5396

EPHEMERIS_TYPE = 0
CLASSIFICATION_TYPE = U
NORAD_CAT_ID   = 68235
ELEMENT_SET_NO = 999
REV_AT_EPOCH   = 270
BSTAR          = .14182E-2
MEAN_MOTION_DOT = .222537E-2
MEAN_MOTION_DDOT = 0

CCSDS_OMM_VERS = 2.0
CREATION_DATE  = 
ORIGINATOR     = 

OBJECT_NAME    = STARLINK-37127
OBJECT_ID      = 2026-054E
CENTER_NAME    = EARTH
REF_FRAME      = TEME
TIME_SYSTEM    = UTC
MEAN_ELEMENT_THEORY = SGP/SGP4

EPOCH          = 2026-04-03T11:55:42.531456
MEAN_MOTION    = 15.75251887
ECCENTRICITY   = .0001383
INCLINATION    = 53.1594
RA_OF_ASC_NODE = 188.6173
ARG_OF_PERICENTER = 72.1543
MEAN_ANOMALY   = 287.9628

EPHEMERIS_TYPE = 0
CLASSIFICATION_TYPE = U
NORAD_CAT_ID   = 68236
ELEMENT_SET_NO = 999
REV_AT_EPOCH   = 269
BSTAR          = .15895E-2
MEAN_MOTION_DOT = .250508E-2
MEAN_MOTION_DDOT = 0

CCSDS_OMM_VERS = 2.0
CREATION_DATE  = 
ORIGINATOR     = 

OBJECT_NAME    = STARLINK-37095
OBJECT_ID      = 2026-054F
CENTER_NAME    = EARTH
REF_FRAME      = TEME
TIME_SYSTEM    = UTC
MEAN_ELEMENT_THEORY = SGP/SGP4

EPOCH          = 2026-04-03T11:49:10.180416
MEAN_MOTION    = 15.75265176
ECCENTRICITY   = .0001063
INCLINATION    = 53.1598
RA_OF_ASC_NODE = 188.5871
ARG_OF_PERICENTER = 126.7873
MEAN_ANOMALY   = 233.3245

EPHEMERIS_TYPE = 0
CLASSIFICATION_TYPE = U
NORAD_CAT_ID   = 68237
ELEMENT_SET_NO = 999
REV_AT_EPOCH   = 269
BSTAR          = .18339E-2
MEAN_MOTION_DOT = .290684E-2
MEAN_MOTION_DDOT = 0

CCSDS_OMM_VERS = 2.0
CREATION_DATE  = 
ORIGINATOR     = 

OBJECT_NAME    = STARLINK-37097
OBJECT_ID      = 2026-054G
CENTER_NAME    = EARTH
REF_FRAME      = TEME
TIME_SYSTEM    = UTC
MEAN_ELEMENT_THEORY = SGP/SGP4

EPOCH          = 2026-04-03T11:16:20.188704
MEAN_MOTION    = 15.80880000
ECCENTRICITY   = .000107
INCLINATION    = 53.1582
RA_OF_ASC_NODE = 188.4349
ARG_OF_PERICENTER = 75.4376
MEAN_ANOMALY   = 284.6765

EPHEMERIS_TYPE = 0
CLASSIFICATION_TYPE = U
NORAD_CAT_ID   = 68238
ELEMENT_SET_NO = 999
REV_AT_EPOCH   = 269
BSTAR          = .17097E-2
MEAN_MOTION_DOT = .350939E-2
MEAN_MOTION_DDOT = 0

