STARLINK-37083          
1 68227U 26053W   26093.47005811  .00239280  00000+0  12155-2 0  9996
2 68227  97.2844 329.0133 0001449  76.4826 283.6604 15.80824222  3942
STARLINK-37050          
1 68228U 26053X   26093.46854858  .00070102  00000+0  36483-3 0  9996
2 68228  97.2847 329.0154 0001086  87.8540 272.2853 15.80753340  3958
STARLINK-37081          
1 68229U 26053Y   26093.48344771  .00211881  00000+0  13872-2 0  9994
2 68229  97.2834 328.9958 0001482 122.9493 237.1915 15.75177076  3974
STARLINK-37100          
1 68230U 26053Z   26093.46780265  .00205540  00000+0  10489-2 0  9992
2 68230  97.2847 329.0165 0001652  94.5131 265.6326 15.80810988  3978
STARLINK-37104          
1 68231U 26053AA  26093.46704674  .00186602  00000+0  95470-3 0  9994
2 68231  97.2845 329.0171 0001223 117.8268 242.3124 15.80805394  3971
STARLINK-37027          
1 68232U 26054A   26093.49215557  .00176054  00000+0  11301-2 0  9996
2 68232  53.1601 188.5855 0000977 110.6450 249.4675 15.75215059  2693
STARLINK-37132          
1 68233U 26054B   26093.53665236  .00311313  00000+0  15235-2 0  9994
2 68233  53.1590 188.1436 0000835 127.5986 232.5113 15.80887999  2702
STARLINK-37101          
1 68234U 26054C   26093.50002314  .00188683  00000+0  12140-2 0  9998
2 68234  53.1592 188.4451 0001421  83.4500  10.9520 15.75120616  3902
STARLINK-36963          
1 68235U 26054D   26093.55139252  .00222537  00000+0  14182-2 0  9991
2 68235  53.1597 188.2417 0001347 133.5736 226.5396 15.75235814  2703
STARLINK-37127          
1 68236U 26054E   26093.49702004  .00250508  00000+0  15895-2 0  9997
2 68236  53.1594 188.6173 0001383  72.1543 287.9628 15.75251887  2693
STARLINK-37095          
1 68237U 26054F   26093.49247894  .00290684  00000+0  18339-2 0  9994
2 68237  53.1598 188.5871 0001063 126.7873 233.3245 15.75265176  2695
STARLINK-37097          
1 68238U 26054G   26093.46967811  .00350939  00000+0  17097-2 0  9990
2 68238  53.1582 188.4349 0001070  75.4376 284.6765 15.80880000  2695
